{"0": [{"zip": "20778", "state": "Maryland", "city": "West River"}, {"zip": "21158", "state": "Maryland", "city": "Westminster"}, {"zip": "21538", "state": "Maryland", "city": "Kitzmiller"}, {"zip": "21918", "state": "Maryland", "city": "Conowingo"}, {"zip": "22108", "state": "Virginia", "city": "McLean"}, {"zip": "22488", "state": "Virginia", "city": "Kinsale"}, {"zip": "23058", "state": "Virginia", "city": "Glen Allen"}, {"zip": "23438", "state": "Virginia", "city": "Suffolk"}, {"zip": "23628", "state": "Virginia", "city": "Newport News"}, {"zip": "24008", "state": "Virginia", "city": "Roanoke"}, {"zip": "24578", "state": "Virginia", "city": "Natural Bridge"}, {"zip": "24958", "state": "West Virginia", "city": "Meadow Bluff"}, {"zip": "25148", "state": "West Virginia", "city": "Orgas"}, {"zip": "25338", "state": "West Virginia", "city": "Charleston"}, {"zip": "25718", "state": "West Virginia", "city": "Huntington"}, {"zip": "25908", "state": "West Virginia", "city": "Princewick"}, {"zip": "26288", "state": "West Virginia", "city": "Webster Springs"}, {"zip": "27048", "state": "North Carolina", "city": "Stoneville"}, {"zip": "27808", "state": "North Carolina", "city": "Bath"}, {"zip": "28378", "state": "North Carolina", "city": "Rex"}, {"zip": "28758", "state": "North Carolina", "city": "Mountain Home"}, {"zip": "29138", "state": "South Carolina", "city": "Saluda"}, {"zip": "29518", "state": "South Carolina", "city": "Cades"}, {"zip": "29708", "state": "South Carolina", "city": "Fort Mill"}, {"zip": "30088", "state": "Georgia", "city": "Stone Mountain"}, {"zip": "30278", "state": "Georgia", "city": "Snellville"}, {"zip": "31038", "state": "Georgia", "city": "Hillsboro"}, {"zip": "31418", "state": "Georgia", "city": "Savannah"}, {"zip": "31798", "state": "Georgia", "city": "Wray"}, {"zip": "32178", "state": "Florida", "city": "Palatka"}, {"zip": "33128", "state": "Florida", "city": "Miami"}, {"zip": "33318", "state": "Florida", "city": "Fort Lauderdale"}, {"zip": "33508", "state": "Florida", "city": "Brandon"}, {"zip": "33888", "state": "Florida", "city": "Winter Haven"}, {"zip": "34268", "state": "Florida", "city": "Nocatee"}, {"zip": "34648", "state": "Florida", "city": "Largo"}, {"zip": "35218", "state": "Alabama", "city": "Birmingham"}, {"zip": "35978", "state": "Alabama", "city": "Henagar"}, {"zip": "36548", "state": "Alabama", "city": "Leroy"}, {"zip": "36738", "state": "Alabama", "city": "Faunsdale"}, {"zip": "37118", "state": "Tennessee", "city": "Milton"}, {"zip": "37308", "state": "Tennessee", "city": "Birchwood"}, {"zip": "37688", "state": "Tennessee", "city": "Shady Valley"}, {"zip": "37878", "state": "Tennessee", "city": "Tallassee"}, {"zip": "38068", "state": "Tennessee", "city": "Somerville"}, {"zip": "38258", "state": "Tennessee", "city": "Trezevant"}, {"zip": "38638", "state": "Mississippi", "city": "Independence"}, {"zip": "38828", "state": "Mississippi", "city": "Blue Springs"}, {"zip": "39208", "state": "Mississippi", "city": "Jackson"}, {"zip": "40348", "state": "Kentucky", "city": "Millersburg"}, {"zip": "42058", "state": "Kentucky", "city": "Ledbetter"}, {"zip": "43008", "state": "Ohio", "city": "Buckeye Lake"}, {"zip": "43198", "state": "Ohio", "city": "Groveport"}, {"zip": "43768", "state": "Ohio", "city": "Old Washington"}, {"zip": "44718", "state": "Ohio", "city": "Canton"}, {"zip": "45858", "state": "Ohio", "city": "Mc Comb"}, {"zip": "46048", "state": "Indiana", "city": "Ingalls"}, {"zip": "46808", "state": "Indiana", "city": "Fort Wayne"}, {"zip": "46998", "state": "Indiana", "city": "Young America"}, {"zip": "47568", "state": "Indiana", "city": "Plainville"}, {"zip": "47948", "state": "Indiana", "city": "Goodland"}, {"zip": "48138", "state": "Michigan", "city": "Grosse Ile"}, {"zip": "48328", "state": "Michigan", "city": "Waterford"}, {"zip": "48708", "state": "Michigan", "city": "Bay City"}, {"zip": "49088", "state": "Michigan", "city": "Scotts"}, {"zip": "49278", "state": "Michigan", "city": "Rollin"}, {"zip": "49468", "state": "Michigan", "city": "Grandville"}, {"zip": "49848", "state": "Michigan", "city": "Ingalls"}, {"zip": "50038", "state": "Iowa", "city": "Booneville"}, {"zip": "50228", "state": "Iowa", "city": "Prairie City"}, {"zip": "50608", "state": "Iowa", "city": "Austinville"}, {"zip": "51558", "state": "Iowa", "city": "Moorhead"}, {"zip": "52318", "state": "Iowa", "city": "Norway"}, {"zip": "53078", "state": "Wisconsin", "city": "Rubicon"}, {"zip": "53268", "state": "Wisconsin", "city": "Milwaukee"}, {"zip": "54028", "state": "Wisconsin", "city": "Woodville"}, {"zip": "54408", "state": "Wisconsin", "city": "Aniwa"}, {"zip": "54978", "state": "Wisconsin", "city": "Tilleda"}, {"zip": "55168", "state": "Minnesota", "city": "Saint Paul"}, {"zip": "55358", "state": "Minnesota", "city": "Maple Lake"}, {"zip": "55738", "state": "Minnesota", "city": "Forbes"}, {"zip": "56118", "state": "Minnesota", "city": "Bingham Lake"}, {"zip": "56308", "state": "Minnesota", "city": "Alexandria"}, {"zip": "56688", "state": "Minnesota", "city": "Wirt"}, {"zip": "57068", "state": "South Dakota", "city": "Valley Springs"}, {"zip": "57258", "state": "South Dakota", "city": "Raymond"}, {"zip": "57448", "state": "South Dakota", "city": "Hosmer"}, {"zip": "57638", "state": "South Dakota", "city": "Lemmon"}, {"zip": "58018", "state": "North Dakota", "city": "Colfax"}, {"zip": "58208", "state": "North Dakota", "city": "Grand Forks"}, {"zip": "58778", "state": "North Dakota", "city": "Ruso"}, {"zip": "59348", "state": "Montana", "city": "Sonnette"}, {"zip": "59538", "state": "Montana", "city": "Malta"}, {"zip": "59728", "state": "Montana", "city": "Elliston"}, {"zip": "59918", "state": "Montana", "city": "Fortine"}, {"zip": "60108", "state": "Illinois", "city": "Bloomingdale"}, {"zip": "60678", "state": "Illinois", "city": "Chicago"}, {"zip": "61058", "state": "Illinois", "city": "Nelson"}, {"zip": "61438", "state": "Illinois", "city": "Good Hope"}, {"zip": "61628", "state": "Illinois", "city": "Peoria"}, {"zip": "61818", "state": "Illinois", "city": "Cerro Gordo"}, {"zip": "62958", "state": "Illinois", "city": "Makanda"}, {"zip": "63338", "state": "Missouri", "city": "Cottleville"}, {"zip": "64098", "state": "Missouri", "city": "Weston"}, {"zip": "64478", "state": "Missouri", "city": "Quitman"}, {"zip": "64668", "state": "Missouri", "city": "Norborne"}, {"zip": "64858", "state": "Missouri", "city": "Racine"}, {"zip": "65048", "state": "Missouri", "city": "Koeltztown"}, {"zip": "65618", "state": "Missouri", "city": "Brixey"}, {"zip": "65808", "state": "Missouri", "city": "Springfield"}, {"zip": "66758", "state": "Kansas", "city": "Neosho Falls"}, {"zip": "66948", "state": "Kansas", "city": "Jamestown"}, {"zip": "67138", "state": "Kansas", "city": "Sharon"}, {"zip": "67518", "state": "Kansas", "city": "Beeler"}, {"zip": "68658", "state": "Nebraska", "city": "Rising City"}, {"zip": "68848", "state": "Nebraska", "city": "Kearney"}, {"zip": "69038", "state": "Nebraska", "city": "Maywood"}, {"zip": "70178", "state": "Louisiana", "city": "New Orleans"}, {"zip": "70558", "state": "Louisiana", "city": "Milton"}, {"zip": "70748", "state": "Louisiana", "city": "Jackson"}, {"zip": "71318", "state": "Louisiana", "city": "Big Bend"}, {"zip": "72078", "state": "Arkansas", "city": "Jacksonville"}, {"zip": "72458", "state": "Arkansas", "city": "Powhatan"}, {"zip": "72648", "state": "Arkansas", "city": "Marble Falls"}, {"zip": "72838", "state": "Arkansas", "city": "Gravelly"}, {"zip": "73028", "state": "Oklahoma", "city": "Crescent"}, {"zip": "74358", "state": "Oklahoma", "city": "North Miami"}, {"zip": "74548", "state": "Oklahoma", "city": "Haywood"}, {"zip": "74738", "state": "Oklahoma", "city": "Grant"}, {"zip": "75118", "state": "Texas", "city": "Elmo"}, {"zip": "75688", "state": "Texas", "city": "Scottsville"}, {"zip": "76068", "state": "Texas", "city": "Mineral Wells"}, {"zip": "76258", "state": "Texas", "city": "Pilot Point"}, {"zip": "76448", "state": "Texas", "city": "Eastland"}, {"zip": "76638", "state": "Texas", "city": "Crawford"}, {"zip": "76828", "state": "Texas", "city": "Burkett"}, {"zip": "77018", "state": "Texas", "city": "Houston"}, {"zip": "77208", "state": "Texas", "city": "Houston"}, {"zip": "77588", "state": "Texas", "city": "Pearland"}, {"zip": "77968", "state": "Texas", "city": "Inez"}, {"zip": "78538", "state": "Texas", "city": "Edcouch"}, {"zip": "78728", "state": "Texas", "city": "Austin"}, {"zip": "79108", "state": "Texas", "city": "Amarillo"}, {"zip": "80248", "state": "Colorado", "city": "Denver"}, {"zip": "80438", "state": "Colorado", "city": "Empire"}, {"zip": "80818", "state": "Colorado", "city": "Genoa"}, {"zip": "81008", "state": "Colorado", "city": "Pueblo"}, {"zip": "82718", "state": "Wyoming", "city": "Gillette"}, {"zip": "83858", "state": "Idaho", "city": "Rathdrum"}, {"zip": "85378", "state": "Arizona", "city": "Surprise"}, {"zip": "88038", "state": "New Mexico", "city": "Gila"}, {"zip": "88418", "state": "New Mexico", "city": "Des Moines"}, {"zip": "89178", "state": "Nevada", "city": "Las Vegas"}, {"zip": "90508", "state": "California", "city": "Torrance"}, {"zip": "90888", "state": "California", "city": "Long Beach"}, {"zip": "92028", "state": "California", "city": "Fallbrook"}, {"zip": "92408", "state": "California", "city": "San Bernardino"}, {"zip": "93928", "state": "California", "city": "Jolon"}, {"zip": "94118", "state": "California", "city": "San Francisco"}, {"zip": "94308", "state": "California", "city": "Palo Alto"}, {"zip": "95258", "state": "California", "city": "Woodbridge"}, {"zip": "95448", "state": "California", "city": "Healdsburg"}, {"zip": "95638", "state": "California", "city": "Herald"}, {"zip": "95828", "state": "California", "city": "Sacramento"}, {"zip": "96208", "state": "", "city": "APO"}, {"zip": "96778", "state": "Hawaii", "city": "Pahoa"}, {"zip": "97348", "state": "Oregon", "city": "Halsey"}, {"zip": "97538", "state": "Oregon", "city": "Selma"}, {"zip": "97918", "state": "Oregon", "city": "Vale"}, {"zip": "98108", "state": "Washington", "city": "Seattle"}]}